[{"OBJECT_NAME":"STARLINK-30397","OBJECT_ID":"2023-134A","EPOCH":"2026-03-09T08:36:14.747328","MEAN_MOTION":15.27596688,"ECCENTRICITY":7.4e-5,"INCLINATION":42.9993,"RA_OF_ASC_NODE":196.5752,"ARG_OF_PERICENTER":162.6936,"MEAN_ANOMALY":197.3941,"EPHEMERIS_TYPE":0,"CLASSIFICATION_TYPE":"U","NORAD_CAT_ID":57771,"ELEMENT_SET_NO":999,"REV_AT_EPOCH":13945,"BSTAR":-0.00017550571,"MEAN_MOTION_DOT":-5.09e-5,"MEAN_MOTION_DDOT":0},{"OBJECT_NAME":"FLOCK 4G-26","OBJECT_ID":"2025-009AA","EPOCH":"2026-03-09T19:19:02.910720","MEAN_MOTION":15.27281631,"ECCENTRICITY":0.0001988,"INCLINATION":97.4054,"RA_OF_ASC_NODE":151.3913,"ARG_OF_PERICENTER":299.1273,"MEAN_ANOMALY":60.9767,"EPHEMERIS_TYPE":0,"CLASSIFICATION_TYPE":"U","NORAD_CAT_ID":62633,"ELEMENT_SET_NO":999,"REV_AT_EPOCH":6373,"BSTAR":0.00042468806,"MEAN_MOTION_DOT":0.00011283,"MEAN_MOTION_DDOT":0}]
